[{"OBJECT_NAME":"YAOGAN-36 05A","OBJECT_ID":"2023-106A","EPOCH":"2026-03-04T20:25:46.095744","MEAN_MOTION":15.23103701,"ECCENTRICITY":0.0001493,"INCLINATION":35.0062,"RA_OF_ASC_NODE":353.7983,"ARG_OF_PERICENTER":236.3594,"MEAN_ANOMALY":123.6979,"EPHEMERIS_TYPE":0,"CLASSIFICATION_TYPE":"U","NORAD_CAT_ID":57452,"ELEMENT_SET_NO":999,"REV_AT_EPOCH":14523,"BSTAR":0.00020950106,"MEAN_MOTION_DOT":5.028e-5,"MEAN_MOTION_DDOT":0},{"OBJECT_NAME":"OBJECT AJ","OBJECT_ID":"2025-313AJ","EPOCH":"2026-03-09T22:21:21.807360","MEAN_MOTION":15.2138311,"ECCENTRICITY":0.00131371,"INCLINATION":97.4064,"RA_OF_ASC_NODE":145.2514,"ARG_OF_PERICENTER":356.4876,"MEAN_ANOMALY":3.6265,"EPHEMERIS_TYPE":0,"CLASSIFICATION_TYPE":"U","NORAD_CAT_ID":67280,"ELEMENT_SET_NO":999,"REV_AT_EPOCH":1085,"BSTAR":0.00031142343,"MEAN_MOTION_DOT":6.931e-5,"MEAN_MOTION_DDOT":0}]
